QUETZSAT 1              
1 37826U 11054A   22099.45996392 -.00000243  00000+0  00000+0 0  9994
2 37826   0.0460  63.2633 0002624 317.4288 265.5612  1.00272268 34550
INTELSAT 18 (IS-18)     
1 37834U 11056A   22099.51831032  .00000051  00000+0  00000+0 0  9997
2 37834   0.0226  34.4982 0001953 343.2622 186.5548  1.00271729 38475
EUTELSAT 16A            
1 37836U 11057A   22099.26321997  .00000102  00000+0  00000+0 0  9993
2 37836   0.0698   7.6953 0004983  16.4196 284.1260  1.00270056 30628
VIASAT-1                
1 37843U 11059A   22099.60087501 -.00000025  00000+0  00000+0 0  9996
2 37843   0.0180 227.3813 0001789 149.6006 282.0392  1.00271805 31984
ASIASAT 7               
1 37933U 11069A   22099.49633388 -.00000335  00000+0  00000+0 0  9998
2 37933   0.0140 246.9303 0001577  89.8399 145.1324  1.00270930 38121
BEIDOU 10               
1 37948U 11073A   22099.49424065 -.00000119  00000+0  00000+0 0  9999
2 37948  50.4494 290.1014 0077315 217.4620 323.6739  1.00268244 38068
LUCH 5A                 
1 37951U 11074B   22099.61064463 -.00000045  00000+0  00000+0 0  9998
2 37951   4.8451  98.9993 0004126 301.2264 184.3681  1.00272760 37856
NIGCOMSAT 1R            
1 38014U 11077A   22099.59674583  .00000143  00000+0  00000+0 0  9997
2 38014   0.0336   2.3991 0003514  31.6943  61.0165  1.00273120 37626
FENGYUN 2F              
1 38049U 12002A   22099.49755493 -.00000355  00000+0  00000+0 0  9999
2 38049   3.6237  80.1776 0004760   5.7400  42.7237  1.00261635 37547
WGS F4 (USA 233)        
1 38070U 12003A   22099.49293237 -.00000216  00000+0  00000+0 0  9993
2 38070   0.0152 198.3698 0000271 102.0871 163.1284  1.00271027 37387
SES-4                   
1 38087U 12007A   22099.39910580 -.00000169  00000+0  00000+0 0  9998
2 38087   0.0210 281.6379 0002291 101.2070 296.4445  1.00272053 36892
BEIDOU 11               
1 38091U 12008A   22099.61833753  .00000057  00000+0  00000+0 0  9990
2 38091   1.4119  65.4309 0014807 322.1728  91.4935  1.00271887 37141
MUOS-1                  
1 38093U 12009A   22099.53529590 -.00000126  00000+0  00000+0 0  9993
2 38093   2.8601  30.1784 0059196 359.2065 261.1061  1.00272256 37108
INTELSAT 22 (IS-22)     
1 38098U 12011A   22099.48970531 -.00000060  00000+0  00000+0 0  9997
2 38098   0.0112 220.5170 0002738 160.9099  64.6588  1.00272138 36476
APSTAR 7                
1 38107U 12013A   22099.49057749 -.00000103  00000+0  00000+0 0  9996
2 38107   0.0161 175.4743 0002056 230.8108  44.5348  1.00272321 36460
YAHSAT 1B               
1 38245U 12016A   22099.60516191  .00000125  00000+0  00000+0 0  9999
2 38245   0.0185 133.6289 0001322 286.9055  42.7390  1.00272858 30262
AEHF-2 (USA 235)        
1 38254U 12019A   22099.39449668 -.00000159  00000+0  00000+0 0  9990
2 38254   3.2039  60.2397 0003523 315.6450 229.5152  1.00273762 35513
JCSAT-13                
1 38331U 12023A   22099.49999705 -.00000358  00000+0  00000+0 0  9995
2 38331   0.0128 180.1012 0002462 216.0483 105.5700  1.00271219 36192
VINASAT-2               
1 38332U 12023B   22099.54313012 -.00000330  00000+0  00000+0 0  9993
2 38332   0.0378  49.6315 0002356 340.9261 134.5751  1.00273296 31323
NIMIQ 6                 
1 38342U 12026A   22099.45708572 -.00000175  00000+0  00000+0 0  9993
2 38342   0.0125 173.3790 0002639 200.5271 257.2260  1.00274103 35085
CHINASAT 2A (ZX 2A)     
1 38352U 12028A   22099.49485118 -.00000295  00000+0  00000+0 0  9991
2 38352   0.0539  43.8190 0002968 347.1017  83.1794  1.00273564 36046
INTELSAT 19 (IS-19)     
1 38356U 12030A   22099.60854771 -.00000058  00000+0  00000+0 0  9993
2 38356   0.0184 204.1596 0003450 189.1548 189.5929  1.00269675 35103
ECHOSTAR 17             
1 38551U 12035A   22099.61099354 -.00000076  00000+0  00000+0 0  9994
2 38551   0.0187 193.4501 0001933 187.8117 289.4230  1.00269890 35722
METEOSAT-10 (MSG-3)     
1 38552U 12035B   22099.26191168  .00000060  00000+0  00000+0 0  9994
2 38552   1.4282  36.5939 0001886 256.6705   7.8683  1.00266550 35512
SES-5                   
1 38652U 12036A   22099.26095229  .00000032  00000+0  00000+0 0  9996
2 38652   0.0584 291.6855 0002168  75.7585 288.9535  1.00268405 29145
TIANLIAN 1-03           
1 38730U 12040A   22099.26400492  .00000124  00000+0  00000+0 0  9992
2 38730   1.8407  92.2519 0007100 322.7066 257.9411  1.00270497 35642
INTELSAT 20 (IS-20)     
1 38740U 12043A   22099.13012509 -.00000026  00000+0  00000+0 0  9992
2 38740   0.0227 143.1483 0001341  47.4069 122.1353  1.00271466 35404
HYLAS 2                 
1 38741U 12043B   22099.48141958  .00000153  00000+0  00000+0 0  9992
2 38741   0.0335  97.3425 0002042 265.7009  38.9936  1.00271609 35421
INTELSAT 21 (IS-21)     
1 38749U 12045A   22099.46371431 -.00000286  00000+0  00000+0 0  9999
2 38749   0.0141 130.0061 0002036 238.8225 297.8013  1.00272749 35292
ASTRA 2F                
1 38778U 12051A   22099.29563115  .00000148  00000+0  00000+0 0  9997
2 38778   0.0600 237.9560 0001935  49.9540  44.2489  1.00268916 25788
GSAT-10                 
1 38779U 12051B   22099.49179854 -.00000166  00000+0  00000+0 0  9994
2 38779   0.0130 194.3008 0000921  58.5388 204.8919  1.00270372 34770
INTELSAT 23 (IS-23)     
1 38867U 12057A   22099.46476093 -.00000286  00000+0  00000+0 0  9993
2 38867   0.0426 113.0220 0001003  80.1873 118.7952  1.00272375 34609
BEIDOU 16               
1 38953U 12059A   22099.49206020 -.00000175  00000+0  00000+0 0  9992
2 38953   1.8177  84.4876 0013242 292.4290  81.9517  1.00269732 34571
LUCH 5B                 
1 38977U 12061A   22099.29461296 -.00000132  00000+0  00000+0 0  9990
2 38977   7.1439  63.1178 0003481   6.3428 217.8232  1.00272375 34835
YAMAL 300K              
1 38978U 12061B   22099.52168167  .00000070  00000+0  00000+0 0  9998
2 38978   0.0172 234.0600 0000543  19.9962 314.4395  1.00270827 34294
STAR ONE C3             
1 38991U 12062A   22099.46031279 -.00000250  00000+0  00000+0 0  9991
2 38991   0.0151 194.4177 0002242 192.5343 261.4466  1.00270468 34429
EUTELSAT 21B            
1 38992U 12062B   22099.26426657  .00000128  00000+0  00000+0 0  9991
2 38992   0.0700   7.9922 0002675  18.1932 288.0351  1.00269796 34490
ECHOSTAR 16             
1 39008U 12065A   22099.46301656 -.00000283  00000+0  00000+0 0  9999
2 39008   0.0164 199.0661 0001936 179.9561 283.8398  1.00271653 34285
CHINASAT 12 (ZX 12)     
1 39017U 12067A   22099.49275795 -.00000209  00000+0  00000+0 0  9996
2 39017   0.0178 195.8058 0002815 182.4521  84.3433  1.00273990 34174
EUTELSAT 70B            
1 39020U 12069A   22099.48935644 -.00000045  00000+0  00000+0 0  9995
2 39020   0.0685  26.9043 0001640 197.7367 219.7110  1.00271421 34174
YAMAL 402               
1 39022U 12070A   22099.60936030  .00000084  00000+0  00000+0 0  9995
2 39022   0.0055 133.1693 0004248 247.7316  91.2066  1.00274445 34268
SKYNET 5D               
1 39034U 12075A   22099.48578050  .00000097  00000+0  00000+0 0  9997
2 39034   0.0754 352.2523 0003617  20.2729  52.8531  1.00276328 33838
MEXSAT 3                
1 39035U 12075B   22099.60087531 -.00000026  00000+0  00000+0 0  9994
2 39035   0.0123 196.2023 0002166 179.3731 283.7619  1.00269508 33842
TDRS 11                 
1 39070U 13004A   22099.52474726  .00000077  00000+0  00000+0 0  9998
2 39070   2.9957 344.1613 0007022  55.0732 173.0258  1.00275279 31359
AMAZONAS 3              
1 39078U 13006A   22099.46310378 -.00000283  00000+0  00000+0 0  9993
2 39078   0.0217 206.4838 0001706 144.3767 312.5266  1.00274527 29561
AZERSPACE 1             
1 39079U 13006B   22099.48447222  .00000131  00000+0  00000+0 0  9996
2 39079   0.0187 114.9357 0001608 290.4919  12.7106  1.00276146 33465
SBIRS GEO-2 (USA 241)   
1 39120U 13011A   22099.26409215  .00000122  00000+0  00000+0 0  9995
2 39120   1.9201  18.2227 0001913   6.0505 288.9792  1.00272384 33190
EUTELSAT 117 WEST A     
1 39122U 13012A   22099.59929251 -.00000014  00000+0  00000+0 0  9992
2 39122   0.0536  71.2154 0002886 305.8608 279.6834  1.00271670 33107
ANIK G1                 
1 39127U 13014A   22099.60941310 -.00000075  00000+0  00000+0 0  9998
2 39127   0.0099 189.8193 0001356 127.6306 352.4566  1.00272181 32919
CHINASAT 11 (ZX 11)     
1 39157U 13020A   22099.49485118 -.00000292  00000+0  00000+0 0  9995
2 39157   0.0361 264.0892 0001614 100.9837 108.7115  1.00272579 32818
EUTELSAT 7B             
1 39163U 13022A   22099.26138838  .00000047  00000+0  00000+0 0  9990
2 39163   0.0687  19.5409 0005852 348.4197 290.6136  1.00273516 32635
WGS F5 (USA 243)        
1 39168U 13024A   22099.46476093 -.00000285  00000+0  00000+0 0  9992
2 39168   0.0141 201.0552 0000460 109.9918   1.4491  1.00271728 31839
SES-6                   
1 39172U 13026A   22099.39544264 -.00000262  00000+0  00000+0 0  9992
2 39172   0.0306 301.0139 0002180  83.4379 275.0121  1.00270933 32384
IRNSS-1A                
1 39199U 13034A   22099.05555359  .00000101  00000+0  00000+0 0  9991
2 39199  32.2757  86.4314 0017909 188.3953 357.6777  1.00278851 32029
MUOS-2                  
1 39206U 13036A   22099.52157608  .00000065  00000+0  00000+0 0  9998
2 39206   2.6506  20.7589 0051091 180.6165   7.0689  1.00272792 31852
ALPHASAT                
1 39215U 13038A   22099.26496432  .00000135  00000+0  00000+0 0  9990
2 39215   2.6880  14.3484 0001916  13.3088 290.0637  1.00271989 28677
INSAT-3D                
1 39216U 13038B   22099.49162411 -.00000158  00000+0  00000+0 0  9999
2 39216   0.0374 106.6937 0001240 283.6541  66.4486  1.00271828 31754
WGS F6 (USA 244)        
1 39222U 13041A   22099.57567896  .00000088  00000+0  00000+0 0  9996
2 39222   0.0177 234.2039 0000175  36.1536 359.4850  1.00271680 30715
ES'HAIL 1               
1 39233U 13044A   22099.26505154  .00000142  00000+0  00000+0 0  9997
2 39233   0.0525  26.2774 0001879 347.7351 304.3938  1.00274660 31298
